[
  {
    "OBJECT_NAME": "STARLINK-37249",
    "OBJECT_ID": "2026-073Z",
    "EPOCH": "2026-04-19T00:00:02.000160",
    "MEAN_MOTION": 15.80741212,
    "ECCENTRICITY": 0.00014827,
    "INCLINATION": 97.2835,
    "RA_OF_ASC_NODE": 306.77,
    "ARG_OF_PERICENTER": 89.1489,
    "MEAN_ANOMALY": 235.7187,
    "EPHEMERIS_TYPE": 0,
    "CLASSIFICATION_TYPE": "U",
    "NORAD_CAT_ID": 68625,
    "ELEMENT_SET_NO": 999,
    "REV_AT_EPOCH": 293,
    "BSTAR": 0.00011819101,
    "MEAN_MOTION_DOT": 0.00022479,
    "MEAN_MOTION_DDOT": 0
  },
  {
    "OBJECT_NAME": "STARLINK-37285",
    "OBJECT_ID": "2026-073AA",
    "EPOCH": "2026-04-19T00:00:02.000160",
    "MEAN_MOTION": 15.75606772,
    "ECCENTRICITY": 0.00018501,
    "INCLINATION": 97.2841,
    "RA_OF_ASC_NODE": 306.7673,
    "ARG_OF_PERICENTER": 94.4288,
    "MEAN_ANOMALY": 224.6749,
    "EPHEMERIS_TYPE": 0,
    "CLASSIFICATION_TYPE": "U",
    "NORAD_CAT_ID": 68626,
    "ELEMENT_SET_NO": 999,
    "REV_AT_EPOCH": 293,
    "BSTAR": -0.0042631427,
    "MEAN_MOTION_DOT": -0.00604006,
    "MEAN_MOTION_DDOT": 0
  },
  {
    "OBJECT_NAME": "STP-S29A OBJECT A",
    "OBJECT_ID": "2026-074A",
    "EPOCH": "2026-04-18T13:13:13.093536",
    "MEAN_MOTION": 15.23255534,
    "ECCENTRICITY": 0.00167198,
    "INCLINATION": 60.0203,
    "RA_OF_ASC_NODE": 46.9755,
    "ARG_OF_PERICENTER": 318.1314,
    "MEAN_ANOMALY": 41.8487,
    "EPHEMERIS_TYPE": 0,
    "CLASSIFICATION_TYPE": "U",
    "NORAD_CAT_ID": 68627,
    "ELEMENT_SET_NO": 999,
    "REV_AT_EPOCH": 169,
    "BSTAR": 0.00035687846,
    "MEAN_MOTION_DOT": 8.281e-05,
    "MEAN_MOTION_DDOT": 0
  },
  {
    "OBJECT_NAME": "MISR-C-1",
    "OBJECT_ID": "2026-074B",
    "EPOCH": "2026-04-18T13:12:06.016032",
    "MEAN_MOTION": 15.23347991,
    "ECCENTRICITY": 0.00151458,
    "INCLINATION": 60.025,
    "RA_OF_ASC_NODE": 46.9838,
    "ARG_OF_PERICENTER": 321.157,
    "MEAN_ANOMALY": 38.842,
    "EPHEMERIS_TYPE": 0,
    "CLASSIFICATION_TYPE": "U",
    "NORAD_CAT_ID": 68628,
    "ELEMENT_SET_NO": 999,
    "REV_AT_EPOCH": 168,
    "BSTAR": 0.00027547199,
    "MEAN_MOTION_DOT": 6.339e-05,
    "MEAN_MOTION_DDOT": 0
  },
  {
    "OBJECT_NAME": "RAWHIDE-1",
    "OBJECT_ID": "2026-074C",
    "EPOCH": "2026-04-18T13:07:38.735904",
    "MEAN_MOTION": 15.2379853,
    "ECCENTRICITY": 0.00185995,
    "INCLINATION": 60.0237,
    "RA_OF_ASC_NODE": 46.9655,
    "ARG_OF_PERICENTER": 326.4145,
    "MEAN_ANOMALY": 33.5755,
    "EPHEMERIS_TYPE": 0,
    "CLASSIFICATION_TYPE": "U",
    "NORAD_CAT_ID": 68629,
    "ELEMENT_SET_NO": 999,
    "REV_AT_EPOCH": 169,
    "BSTAR": 0.00039662742,
    "MEAN_MOTION_DOT": 9.399e-05,
    "MEAN_MOTION_DDOT": 0
  },
  {
    "OBJECT_NAME": "STPSAT-7",
    "OBJECT_ID": "2026-074D",
    "EPOCH": "2026-04-18T13:04:31.833696",
    "MEAN_MOTION": 15.24059434,
    "ECCENTRICITY": 0.00166825,
    "INCLINATION": 60.0236,
    "RA_OF_ASC_NODE": 46.9558,
    "ARG_OF_PERICENTER": 331.1901,
    "MEAN_ANOMALY": 28.8257,
    "EPHEMERIS_TYPE": 0,
    "CLASSIFICATION_TYPE": "U",
    "NORAD_CAT_ID": 68630,
    "ELEMENT_SET_NO": 999,
    "REV_AT_EPOCH": 168,
    "BSTAR": 0.00019539113,
    "MEAN_MOTION_DOT": 4.513e-05,
    "MEAN_MOTION_DDOT": 0
  },
  {
    "OBJECT_NAME": "STP-S29A OBJECT E",
    "OBJECT_ID": "2026-074E",
    "EPOCH": "2026-04-17T21:19:43.107168",
    "MEAN_MOTION": 15.24060293,
    "ECCENTRICITY": 0.00171458,
    "INCLINATION": 60.0232,
    "RA_OF_ASC_NODE": 49.4688,
    "ARG_OF_PERICENTER": 330.3504,
    "MEAN_ANOMALY": 29.6603,
    "EPHEMERIS_TYPE": 0,
    "CLASSIFICATION_TYPE": "U",
    "NORAD_CAT_ID": 68631,
    "ELEMENT_SET_NO": 999,
    "REV_AT_EPOCH": 159,
    "BSTAR": 0.00013933771,
    "MEAN_MOTION_DOT": 3.135e-05,
    "MEAN_MOTION_DDOT": 0
  },
  {
    "OBJECT_NAME": "RAWHIDE-2",
    "OBJECT_ID": "2026-074F",
    "EPOCH": "2026-04-18T06:41:30.076512",
    "MEAN_MOTION": 15.24601002,
    "ECCENTRICITY": 0.0017623,
    "INCLINATION": 60.0328,
    "RA_OF_ASC_NODE": 47.9597,
    "ARG_OF_PERICENTER": 335.7876,
    "MEAN_ANOMALY": 24.2375,
    "EPHEMERIS_TYPE": 0,
    "CLASSIFICATION_TYPE": "U",
    "NORAD_CAT_ID": 68632,
    "ELEMENT_SET_NO": 999,
    "REV_AT_EPOCH": 164,
    "BSTAR": 0.0003606875,
    "MEAN_MOTION_DOT": 8.727e-05,
    "MEAN_MOTION_DDOT": 0
  },
  {
    "OBJECT_NAME": "MISR-C-2",
    "OBJECT_ID": "2026-074G",
    "EPOCH": "2026-04-18T06:37:08.290560",
    "MEAN_MOTION": 15.25005783,
    "ECCENTRICITY": 0.00183369,
    "INCLINATION": 60.0233,
    "RA_OF_ASC_NODE": 47.9275,
    "ARG_OF_PERICENTER": 341.8953,
    "MEAN_ANOMALY": 18.1473,
    "EPHEMERIS_TYPE": 0,
    "CLASSIFICATION_TYPE": "U",
    "NORAD_CAT_ID": 68633,
    "ELEMENT_SET_NO": 999,
    "REV_AT_EPOCH": 164,
    "BSTAR": 0.00025529653,
    "MEAN_MOTION_DOT": 6.168e-05,
    "MEAN_MOTION_DDOT": 0
  },
  {
    "OBJECT_NAME": "STP-S29A OBJECT H",
    "OBJECT_ID": "2026-074H",
    "EPOCH": "2026-04-18T12:50:54.514752",
    "MEAN_MOTION": 15.25395593,
    "ECCENTRICITY": 0.00193652,
    "INCLINATION": 60.0224,
    "RA_OF_ASC_NODE": 46.9047,
    "ARG_OF_PERICENTER": 345.406,
    "MEAN_ANOMALY": 14.646,
    "EPHEMERIS_TYPE": 0,
    "CLASSIFICATION_TYPE": "U",
    "NORAD_CAT_ID": 68634,
    "ELEMENT_SET_NO": 999,
    "REV_AT_EPOCH": 169,
    "BSTAR": 0.00033758982,
    "MEAN_MOTION_DOT": 8.357e-05,
    "MEAN_MOTION_DDOT": 0
  },
  {
    "OBJECT_NAME": "CANVAS",
    "OBJECT_ID": "2026-074J",
    "EPOCH": "2026-04-18T13:05:22.664544",
    "MEAN_MOTION": 15.24024365,
    "ECCENTRICITY": 0.00190635,
    "INCLINATION": 60.0251,
    "RA_OF_ASC_NODE": 46.9627,
    "ARG_OF_PERICENTER": 330.0508,
    "MEAN_ANOMALY": 29.948,
    "EPHEMERIS_TYPE": 0,
    "CLASSIFICATION_TYPE": "U",
    "NORAD_CAT_ID": 68635,
    "ELEMENT_SET_NO": 999,
    "REV_AT_EPOCH": 169,
    "BSTAR": 0.00045365853,
    "MEAN_MOTION_DOT": 0.0001087,
    "MEAN_MOTION_DDOT": 0
  },
  {
    "OBJECT_NAME": "QIANFAN-109",
    "OBJECT_ID": "2026-075A",
    "EPOCH": "2026-04-17T20:44:05.696448",
    "MEAN_MOTION": 14.20239475,
    "ECCENTRICITY": 0.00140251,
    "INCLINATION": 88.9909,
    "RA_OF_ASC_NODE": 327.528,
    "ARG_OF_PERICENTER": 178.7633,
    "MEAN_ANOMALY": 181.3594,
    "EPHEMERIS_TYPE": 0,
    "CLASSIFICATION_TYPE": "U",
    "NORAD_CAT_ID": 68636,
    "ELEMENT_SET_NO": 999,
    "REV_AT_EPOCH": 146,
    "BSTAR": 9.608711e-05,
    "MEAN_MOTION_DOT": 2.2e-06,
    "MEAN_MOTION_DDOT": 0
  },
  {
    "OBJECT_NAME": "QIANFAN-110",
    "OBJECT_ID": "2026-075B",
    "EPOCH": "2026-04-17T22:20:56.754816",
    "MEAN_MOTION": 14.21658238,
    "ECCENTRICITY": 0.00145716,
    "INCLINATION": 88.991,
    "RA_OF_ASC_NODE": 327.5202,
    "ARG_OF_PERICENTER": 179.2967,
    "MEAN_ANOMALY": 180.8247,
    "EPHEMERIS_TYPE": 0,
    "CLASSIFICATION_TYPE": "U",
    "NORAD_CAT_ID": 68637,
    "ELEMENT_SET_NO": 999,
    "REV_AT_EPOCH": 147,
    "BSTAR": 0.00011167565,
    "MEAN_MOTION_DOT": 2.6e-06,
    "MEAN_MOTION_DDOT": 0
  },
  {
    "OBJECT_NAME": "QIANFAN-111",
    "OBJECT_ID": "2026-075C",
    "EPOCH": "2026-04-17T22:19:27.983136",
    "MEAN_MOTION": 14.20963292,
    "ECCENTRICITY": 0.00145446,
    "INCLINATION": 88.991,
    "RA_OF_ASC_NODE": 327.5195,
    "ARG_OF_PERICENTER": 179.7282,
    "MEAN_ANOMALY": 180.3919,
    "EPHEMERIS_TYPE": 0,
    "CLASSIFICATION_TYPE": "U",
    "NORAD_CAT_ID": 68638,
    "ELEMENT_SET_NO": 999,
    "REV_AT_EPOCH": 147,
    "BSTAR": 2.5773521e-05,
    "MEAN_MOTION_DOT": 7e-07,
    "MEAN_MOTION_DDOT": 0
  }
]