STARLINK-37249          
1 68625U 26073Z   26109.00002315  .00022479  00000+0  11819-3 0  9990
2 68625  97.2835 306.7700 0001483  89.1489 235.7187 15.80741212  2939
STARLINK-37285          
1 68626U 26073AA  26109.00002315 -.00604006  00000+0 -42631-2 0  9990
2 68626  97.2841 306.7673 0001850  94.4288 224.6749 15.75606772  2936
STP-S29A OBJECT A       
1 68627U 26074A   26108.55084599  .00008281  00000+0  35688-3 0  9991
2 68627  60.0203  46.9755 0016719 318.1314  41.8487 15.23255534  1696
MISR-C-1                
1 68628U 26074B   26108.55006963  .00006339  00000+0  27547-3 0  9998
2 68628  60.0250  46.9838 0015145 321.1570  38.8420 15.23347991  1682
RAWHIDE-1               
1 68629U 26074C   26108.54697611  .00009399  00000+0  39663-3 0  9995
2 68629  60.0237  46.9655 0018599 326.4145  33.5755 15.23798530  1690
STPSAT-7                
1 68630U 26074D   26108.54481289  .00004513  00000+0  19539-3 0  9992
2 68630  60.0236  46.9558 0016682 331.1901  28.8257 15.24059434  1684
STP-S29A OBJECT E       
1 68631U 26074E   26107.88869337  .00003135  00000+0  13934-3 0  9995
2 68631  60.0232  49.4688 0017145 330.3504  29.6603 15.24060293  1597
RAWHIDE-2               
1 68632U 26074F   26108.27882033  .00008727  00000+0  36069-3 0  9994
2 68632  60.0328  47.9597 0017623 335.7876  24.2375 15.24601002  1640
MISR-C-2                
1 68633U 26074G   26108.27579040  .00006168  00000+0  25530-3 0  9994
2 68633  60.0233  47.9275 0018336 341.8953  18.1473 15.25005783  1641
STP-S29A OBJECT H       
1 68634U 26074H   26108.53535318  .00008357  00000+0  33759-3 0  9998
2 68634  60.0224  46.9047 0019365 345.4060  14.6460 15.25395593  1693
CANVAS                  
1 68635U 26074J   26108.54540121  .00010870  00000+0  45366-3 0  9998
2 68635  60.0251  46.9627 0019063 330.0508  29.9480 15.24024365  1696
QIANFAN-109             
1 68636U 26075A   26107.86395482  .00000220  00000+0  96087-4 0  9997
2 68636  88.9909 327.5280 0014025 178.7633 181.3594 14.20239475  1467
QIANFAN-110             
1 68637U 26075B   26107.93121244  .00000260  00000+0  11168-3 0  9999
2 68637  88.9910 327.5202 0014571 179.2967 180.8247 14.21658238  1479
QIANFAN-111             
1 68638U 26075C   26107.93018499  .00000070  00000+0  25774-4 0  9995
2 68638  88.9910 327.5195 0014544 179.7282 180.3919 14.20963292  1475
